CCSDS_OMM_VERS = 2.0
CREATION_DATE  = 
ORIGINATOR     = 

OBJECT_NAME    = SL-16 R/B
OBJECT_ID      = 1993-016B
CENTER_NAME    = EARTH
REF_FRAME      = TEME
TIME_SYSTEM    = UTC
MEAN_ELEMENT_THEORY = SGP/SGP4

EPOCH          = 2026-01-04T22:59:47.037120
MEAN_MOTION    = 14.15296551
ECCENTRICITY   = .00081524
INCLINATION    = 71.0089
RA_OF_ASC_NODE = 349.0369
ARG_OF_PERICENTER = 50.7357
MEAN_ANOMALY   = 309.4487

EPHEMERIS_TYPE = 0
CLASSIFICATION_TYPE = U
NORAD_CAT_ID   = 22566
ELEMENT_SET_NO = 999
REV_AT_EPOCH   = 69315
BSTAR          = -.10826389E-4
MEAN_MOTION_DOT = -.69E-6
MEAN_MOTION_DDOT = 0

CCSDS_OMM_VERS = 2.0
CREATION_DATE  = 
ORIGINATOR     = 

OBJECT_NAME    = COSMOS 2242
OBJECT_ID      = 1993-024A
CENTER_NAME    = EARTH
REF_FRAME      = TEME
TIME_SYSTEM    = UTC
MEAN_ELEMENT_THEORY = SGP/SGP4

EPOCH          = 2026-01-04T23:26:32.832096
MEAN_MOTION    = 14.96230623
ECCENTRICITY   = .00170016
INCLINATION    = 82.5205
RA_OF_ASC_NODE = 327.6325
ARG_OF_PERICENTER = 153.8554
MEAN_ANOMALY   = 206.3531

EPHEMERIS_TYPE = 0
CLASSIFICATION_TYPE = U
NORAD_CAT_ID   = 22626
ELEMENT_SET_NO = 999
REV_AT_EPOCH   = 77086
BSTAR          = .2776123E-3
MEAN_MOTION_DOT = .3165E-4
MEAN_MOTION_DDOT = 0

CCSDS_OMM_VERS = 2.0
CREATION_DATE  = 
ORIGINATOR     = 

OBJECT_NAME    = SL-16 R/B
OBJECT_ID      = 1993-059B
CENTER_NAME    = EARTH
REF_FRAME      = TEME
TIME_SYSTEM    = UTC
MEAN_ELEMENT_THEORY = SGP/SGP4

EPOCH          = 2026-01-04T19:29:51.704736
MEAN_MOTION    = 14.17219152
ECCENTRICITY   = .00192181
INCLINATION    = 70.9901
RA_OF_ASC_NODE = 145.8325
ARG_OF_PERICENTER = 303.0749
MEAN_ANOMALY   = 56.8529

EPHEMERIS_TYPE = 0
CLASSIFICATION_TYPE = U
NORAD_CAT_ID   = 22803
ELEMENT_SET_NO = 999
REV_AT_EPOCH   = 67048
BSTAR          = -.41785136E-4
MEAN_MOTION_DOT = -.133E-5
MEAN_MOTION_DDOT = 0

CCSDS_OMM_VERS = 2.0
CREATION_DATE  = 
ORIGINATOR     = 

OBJECT_NAME    = ARIANE 40 R/B
OBJECT_ID      = 1993-061H
CENTER_NAME    = EARTH
REF_FRAME      = TEME
TIME_SYSTEM    = UTC
MEAN_ELEMENT_THEORY = SGP/SGP4

EPOCH          = 2026-01-04T19:16:05.752704
MEAN_MOTION    = 14.32819939
ECCENTRICITY   = .001172
INCLINATION    = 98.5041
RA_OF_ASC_NODE = 74.9096
ARG_OF_PERICENTER = 112.0326
MEAN_ANOMALY   = 248.2104

EPHEMERIS_TYPE = 0
CLASSIFICATION_TYPE = U
NORAD_CAT_ID   = 22830
ELEMENT_SET_NO = 999
REV_AT_EPOCH   = 68495
BSTAR          = .19059021E-3
MEAN_MOTION_DOT = .477E-5
MEAN_MOTION_DDOT = 0

CCSDS_OMM_VERS = 2.0
CREATION_DATE  = 
ORIGINATOR     = 

OBJECT_NAME    = COSMOS 2278
OBJECT_ID      = 1994-023A
CENTER_NAME    = EARTH
REF_FRAME      = TEME
TIME_SYSTEM    = UTC
MEAN_ELEMENT_THEORY = SGP/SGP4

EPOCH          = 2026-01-04T22:42:06.482304
MEAN_MOTION    = 14.14356469
ECCENTRICITY   = .00072842
INCLINATION    = 71.0547
RA_OF_ASC_NODE = 308.4590
ARG_OF_PERICENTER = 137.3288
MEAN_ANOMALY   = 222.8401

EPHEMERIS_TYPE = 0
CLASSIFICATION_TYPE = U
NORAD_CAT_ID   = 23087
ELEMENT_SET_NO = 999
REV_AT_EPOCH   = 63579
BSTAR          = .26086384E-3
MEAN_MOTION_DOT = .452E-5
MEAN_MOTION_DDOT = 0

CCSDS_OMM_VERS = 2.0
CREATION_DATE  = 
ORIGINATOR     = 

OBJECT_NAME    = SL-16 R/B
OBJECT_ID      = 1994-023B
CENTER_NAME    = EARTH
REF_FRAME      = TEME
TIME_SYSTEM    = UTC
MEAN_ELEMENT_THEORY = SGP/SGP4

EPOCH          = 2026-01-04T22:48:54.704160
MEAN_MOTION    = 14.14999892
ECCENTRICITY   = .0002661
INCLINATION    = 70.9981
RA_OF_ASC_NODE = 204.7432
ARG_OF_PERICENTER = 352.5941
MEAN_ANOMALY   = 7.5142

EPHEMERIS_TYPE = 0
CLASSIFICATION_TYPE = U
NORAD_CAT_ID   = 23088
ELEMENT_SET_NO = 999
REV_AT_EPOCH   = 63707
BSTAR          = .14892241E-3
MEAN_MOTION_DOT = .241E-5
MEAN_MOTION_DDOT = 0

CCSDS_OMM_VERS = 2.0
CREATION_DATE  = 
ORIGINATOR     = 

OBJECT_NAME    = SL-16 R/B
OBJECT_ID      = 1994-074B
CENTER_NAME    = EARTH
REF_FRAME      = TEME
TIME_SYSTEM    = UTC
MEAN_ELEMENT_THEORY = SGP/SGP4

EPOCH          = 2026-01-04T16:22:50.608416
MEAN_MOTION    = 14.79321828
ECCENTRICITY   = .00079586
INCLINATION    = 97.7178
RA_OF_ASC_NODE = 38.0726
ARG_OF_PERICENTER = 73.4801
MEAN_ANOMALY   = 39.9804

EPHEMERIS_TYPE = 0
CLASSIFICATION_TYPE = U
NORAD_CAT_ID   = 23343
ELEMENT_SET_NO = 999
REV_AT_EPOCH   = 67778
BSTAR          = .11686811E-3
MEAN_MOTION_DOT = .821E-5
MEAN_MOTION_DDOT = 0

CCSDS_OMM_VERS = 2.0
CREATION_DATE  = 
ORIGINATOR     = 

OBJECT_NAME    = SL-16 R/B
OBJECT_ID      = 1994-077B
CENTER_NAME    = EARTH
REF_FRAME      = TEME
TIME_SYSTEM    = UTC
MEAN_ELEMENT_THEORY = SGP/SGP4

EPOCH          = 2026-01-04T17:52:57.621504
MEAN_MOTION    = 14.15550072
ECCENTRICITY   = .00049303
INCLINATION    = 70.9828
RA_OF_ASC_NODE = 127.0174
ARG_OF_PERICENTER = 265.2932
MEAN_ANOMALY   = 94.7628

EPHEMERIS_TYPE = 0
CLASSIFICATION_TYPE = U
NORAD_CAT_ID   = 23405
ELEMENT_SET_NO = 999
REV_AT_EPOCH   = 60718
BSTAR          = .3997583E-5
MEAN_MOTION_DOT = -.4E-6
MEAN_MOTION_DDOT = 0

CCSDS_OMM_VERS = 2.0
CREATION_DATE  = 
ORIGINATOR     = 

OBJECT_NAME    = ARIANE 40+ R/B
OBJECT_ID      = 1995-021B
CENTER_NAME    = EARTH
REF_FRAME      = TEME
TIME_SYSTEM    = UTC
MEAN_ELEMENT_THEORY = SGP/SGP4

EPOCH          = 2026-01-04T23:17:53.937024
MEAN_MOTION    = 14.39716898
ECCENTRICITY   = .00062442
INCLINATION    = 98.4618
RA_OF_ASC_NODE = 77.2762
ARG_OF_PERICENTER = 341.4556
MEAN_ANOMALY   = 191.4024

EPHEMERIS_TYPE = 0
CLASSIFICATION_TYPE = U
NORAD_CAT_ID   = 23561
ELEMENT_SET_NO = 999
REV_AT_EPOCH   = 61007
BSTAR          = .16251651E-3
MEAN_MOTION_DOT = .465E-5
MEAN_MOTION_DDOT = 0

CCSDS_OMM_VERS = 2.0
CREATION_DATE  = 
ORIGINATOR     = 

OBJECT_NAME    = SL-16 R/B
OBJECT_ID      = 1995-058B
CENTER_NAME    = EARTH
REF_FRAME      = TEME
TIME_SYSTEM    = UTC
MEAN_ELEMENT_THEORY = SGP/SGP4

EPOCH          = 2026-01-04T23:03:47.112480
MEAN_MOTION    = 14.15485391
ECCENTRICITY   = .0014135
INCLINATION    = 71.0227
RA_OF_ASC_NODE = 314.0512
ARG_OF_PERICENTER = 224.0388
MEAN_ANOMALY   = 135.9610

EPHEMERIS_TYPE = 0
CLASSIFICATION_TYPE = U
NORAD_CAT_ID   = 23705
ELEMENT_SET_NO = 999
REV_AT_EPOCH   = 55883
BSTAR          = .19863243E-3
MEAN_MOTION_DOT = .341E-5
MEAN_MOTION_DDOT = 0

CCSDS_OMM_VERS = 2.0
CREATION_DATE  = 
ORIGINATOR     = 

OBJECT_NAME    = SL-16 R/B
OBJECT_ID      = 1996-051B
CENTER_NAME    = EARTH
REF_FRAME      = TEME
TIME_SYSTEM    = UTC
MEAN_ELEMENT_THEORY = SGP/SGP4

EPOCH          = 2026-01-04T22:20:15.581760
MEAN_MOTION    = 14.12399487
ECCENTRICITY   = .00193515
INCLINATION    = 70.7599
RA_OF_ASC_NODE = 310.1951
ARG_OF_PERICENTER = 232.9376
MEAN_ANOMALY   = 126.9975

EPHEMERIS_TYPE = 0
CLASSIFICATION_TYPE = U
NORAD_CAT_ID   = 24298
ELEMENT_SET_NO = 999
REV_AT_EPOCH   = 51264
BSTAR          = .45052497E-4
MEAN_MOTION_DOT = .34E-6
MEAN_MOTION_DDOT = 0

CCSDS_OMM_VERS = 2.0
CREATION_DATE  = 
ORIGINATOR     = 

OBJECT_NAME    = ORBVIEW 2 (SEASTAR)
OBJECT_ID      = 1997-037A
CENTER_NAME    = EARTH
REF_FRAME      = TEME
TIME_SYSTEM    = UTC
MEAN_ELEMENT_THEORY = SGP/SGP4

EPOCH          = 2026-01-04T22:02:02.334048
MEAN_MOTION    = 14.35438009
ECCENTRICITY   = .00014232
INCLINATION    = 98.8473
RA_OF_ASC_NODE = 167.5786
ARG_OF_PERICENTER = 231.2189
MEAN_ANOMALY   = 128.8869

EPHEMERIS_TYPE = 0
CLASSIFICATION_TYPE = U
NORAD_CAT_ID   = 24883
ELEMENT_SET_NO = 999
REV_AT_EPOCH   = 49932
BSTAR          = .17033736E-3
MEAN_MOTION_DOT = .443E-5
MEAN_MOTION_DDOT = 0

