SL-16 R/B               
1 22566U 93016B   26004.95818330 -.00000069  00000+0 -10826-4 0  9996
2 22566  71.0089 349.0369 0008152  50.7357 309.4487 14.15296551693153
COSMOS 2242             
1 22626U 93024A   26004.97676889  .00003165  00000+0  27761-3 0  9998
2 22626  82.5205 327.6325 0017001 153.8554 206.3531 14.96230623770864
SL-16 R/B               
1 22803U 93059B   26004.81240399 -.00000133  00000+0 -41785-4 0  9996
2 22803  70.9901 145.8325 0019218 303.0749  56.8529 14.17219152670481
ARIANE 40 R/B           
1 22830U 93061H   26004.80284436  .00000477  00000+0  19059-3 0  9995
2 22830  98.5041  74.9096 0011720 112.0326 248.2104 14.32819939684957
COSMOS 2278             
1 23087U 94023A   26004.94590836  .00000452  00000+0  26086-3 0  9999
2 23087  71.0547 308.4590 0007284 137.3288 222.8401 14.14356469635790
SL-16 R/B               
1 23088U 94023B   26004.95063315  .00000241  00000+0  14892-3 0  9996
2 23088  70.9981 204.7432 0002661 352.5941   7.5142 14.14999892637071
SL-16 R/B               
1 23343U 94074B   26004.68253019  .00000821  00000+0  11687-3 0  9991
2 23343  97.7178  38.0726 0007958  73.4801  39.9804 14.79321828677787
SL-16 R/B               
1 23405U 94077B   26004.74511136 -.00000040  00000+0  39976-5 0  9994
2 23405  70.9828 127.0174 0004930 265.2932  94.7628 14.15550072607185
ARIANE 40+ R/B          
1 23561U 95021B   26004.97076316  .00000465  00000+0  16252-3 0  9998
2 23561  98.4618  77.2762 0006244 341.4556 191.4024 14.39716898610071
SL-16 R/B               
1 23705U 95058B   26004.96096195  .00000341  00000+0  19863-3 0  9998
2 23705  71.0227 314.0512 0014135 224.0388 135.9610 14.15485391558830
SL-16 R/B               
1 24298U 96051B   26004.93073590  .00000034  00000+0  45052-4 0  9990
2 24298  70.7599 310.1951 0019351 232.9376 126.9975 14.12399487512640
ORBVIEW 2 (SEASTAR)     
1 24883U 97037A   26004.91808257  .00000443  00000+0  17034-3 0  9991
2 24883  98.8473 167.5786 0001423 231.2189 128.8869 14.35438009499328
